$$SOE
2460721.500000000, A.D. 2025-Feb-15 00:00:00.0000, 3.536021545795709E+08, -5.202269372471164E+07, -1.681909769799662E+07,
2460728.500000000, A.D. 2025-Feb-22 00:00:00.0000, 3.565237997158324E+08, -4.122253462415681E+07, -1.584832342929179E+07,
2460735.500000000, A.D. 2025-Mar-01 00:00:00.0000, 3.590721699677137E+08, -3.037922291701910E+07, -1.486095369584332E+07,
2460742.500000000, A.D. 2025-Mar-08 00:00:00.0000, 3.612489978574879E+08, -1.950448337826316E+07, -1.385820473930014E+07,
2460749.500000000, A.D. 2025-Mar-15 00:00:00.0000, 3.630562885513707E+08, -8.609796280940764E+06, -1.284127778189850E+07,
2460756.500000000, A.D. 2025-Mar-22 00:00:00.0000, 3.644963022291617E+08, 2.293600265570414E+06, -1.181135854642312E+07,
2460763.500000000, A.D. 2025-Mar-29 00:00:00.0000, 3.655715387725712E+08, 1.319470523488981E+07, -1.076961716434526E+07,
2460770.500000000, A.D. 2025-Apr-05 00:00:00.0000, 3.662847250650333E+08, 2.408275007179484E+07, -9.717208237723133E+06,
2460777.500000000, A.D. 2025-Apr-12 00:00:00.0000, 3.666388029471457E+08, 3.494719472022416E+07, -8.655270862466738E+06,
2460784.500000000, A.D. 2025-Apr-19 00:00:00.0000, 3.666369176105282E+08, 4.577772346976952E+07, -7.584928661189701E+06,
2460791.500000000, A.D. 2025-Apr-26 00:00:00.0000, 3.662824066705343E+08, 5.656424047192717E+07, -6.507289861043742E+06,
2460798.500000000, A.D. 2025-May-03 00:00:00.0000, 3.655787899996771E+08, 6.729686499467438E+07, -5.423447419723682E+06,
2460805.500000000, A.D. 2025-May-10 00:00:00.0000, 3.645297603186135E+08, 7.796592646893381E+07, -4.334479196284644E+06,
2460812.500000000, A.D. 2025-May-17 00:00:00.0000, 3.631391745503855E+08, 8.856195932660852E+07, -3.241448168587342E+06,
2460819.500000000, A.D. 2025-May-24 00:00:00.0000, 3.614110460819033E+08, 9.907569761197685E+07, -2.145402713272557E+06,
2460826.500000000, A.D. 2025-May-31 00:00:00.0000, 3.593495383197671E+08, 1.094980697084062E+08, -1.047376957219809E+06,
2460833.500000000, A.D. 2025-Jun-07 00:00:00.0000, 3.569589591053450E+08, 1.198201944139432E+08, 5.160893842154741E+04,
2460840.500000000, A.D. 2025-Jun-14 00:00:00.0000, 3.542437535951921E+08, 1.300333777300892E+08, 1.150548728063464E+06,
2460847.500000000, A.D. 2025-Jun-21 00:00:00.0000, 3.512084968028957E+08, 1.401291071180396E+08, 2.248449889984682E+06,
2460854.500000000, A.D. 2025-Jun-28 00:00:00.0000, 3.478578889046670E+08, 1.500990450055780E+08, 3.344333153066963E+06,
2460861.500000000, A.D. 2025-Jul-05 00:00:00.0000, 3.441967517637435E+08, 1.599350237204955E+08, 4.437232060087636E+06,
2460868.500000000, A.D. 2025-Jul-12 00:00:00.0000, 3.402300254589165E+08, 1.696290410641691E+08, 5.526192613831460E+06,
2460875.500000000, A.D. 2025-Jul-19 00:00:00.0000, 3.359627649856609E+08, 1.791732559662051E+08, 6.610272944226086E+06,
2460882.500000000, A.D. 2025-Jul-26 00:00:00.0000, 3.314001373191217E+08, 1.885599841762415E+08, 7.688542974873200E+06,
2460889.500000000, A.D. 2025-Aug-02 00:00:00.0000, 3.265474188826143E+08, 1.977816940243780E+08, 8.760084086577103E+06,
2460896.500000000, A.D. 2025-Aug-09 00:00:00.0000, 3.214099934214176E+08, 2.068310022444669E+08, 9.823988775978923E+06,
2460903.500000000, A.D. 2025-Aug-16 00:00:00.0000, 3.159933503347496E+08, 2.157006698079779E+08, 1.087936029846177E+07,
2460910.500000000, A.D. 2025-Aug-23 00:00:00.0000, 3.103030837382250E+08, 2.243835977991732E+08, 1.192531227156785E+07,
2460917.500000000, A.D. 2025-Aug-30 00:00:00.0000, 3.043448925710127E+08, 2.328728240592932E+08, 1.296096826902346E+07,
2460924.500000000, A.D. 2025-Sep-06 00:00:00.0000, 2.981245803146926E+08, 2.411615216098416E+08, 1.398546161903496E+07,
2460931.500000000, A.D. 2025-Sep-13 00:00:00.0000, 2.916480526394208E+08, 2.492429963848028E+08, 1.499793535972485E+07,
2460938.500000000, A.D. 2025-Sep-20 00:00:00.0000, 2.849213162446382E+08, 2.571106826389227E+08, 1.599754191933107E+07,
2460945.500000000, A.D. 2025-Sep-27 00:00:00.0000, 2.779504799420952E+08, 2.647581391478114E+08, 1.698344267933442E+07,
2460952.500000000, A.D. 2025-Oct-04 00:00:00.0000, 2.707417559488256E+08, 2.721790467447842E+08, 1.795480765062810E+07,
2460959.500000000, A.D. 2025-Oct-11 00:00:00.0000, 2.633014610028983E+08, 2.793672062601159E+08, 1.891081522129685E+07,
2460966.500000000, A.D. 2025-Oct-18 00:00:00.0000, 2.556360175741323E+08, 2.863165365975543E+08, 1.985065192891344E+07,
2460973.500000000, A.D. 2025-Oct-25 00:00:00.0000, 2.477519552988493E+08, 2.930210729683253E+08, 2.077351224674399E+07,
2460980.500000000, A.D. 2025-Nov-01 00:00:00.0000, 2.396559126682527E+08, 2.994749653071373E+08, 2.167859838272588E+07,
2460987.500000000, A.D. 2025-Nov-08 00:00:00.0000, 2.313546389952975E+08, 3.056724768475191E+08, 2.256512008658612E+07,
2460994.500000000, A.D. 2025-Nov-15 00:00:00.0000, 2.228549967979467E+08, 3.116079828068056E+08, 2.343229444773553E+07,
2461001.500000000, A.D. 2025-Nov-22 00:00:00.0000, 2.141639649915872E+08, 3.172759694107532E+08, 2.427934566588566E+07,
2461008.500000000, A.D. 2025-Nov-29 00:00:00.0000, 2.052886427280779E+08, 3.226710344023534E+08, 2.510550490174389E+07,
2461015.500000000, A.D. 2025-Dec-06 00:00:00.0000, 1.962362515906990E+08, 3.277878889057751E+08, 2.591001040573114E+07,
2461022.500000000, A.D. 2025-Dec-13 00:00:00.0000, 1.870141365625671E+08, 3.326213572899045E+08, 2.669210761111067E+07,
2461029.500000000, A.D. 2025-Dec-20 00:00:00.0000, 1.776297692550510E+08, 3.371663760764084E+08, 2.745104895719746E+07,
2461036.500000000, A.D. 2025-Dec-27 00:00:00.0000, 1.680907523166555E+08, 3.414179944986935E+08, 2.818609375453366E+07,
2461043.500000000, A.D. 2026-Jan-03 00:00:00.0000, 1.584048235533256E+08, 3.453713761103611E+08, 2.889650817744848E+07,
2461050.500000000, A.D. 2026-Jan-10 00:00:00.0000, 1.485798598599443E+08, 3.490218007806219E+08, 2.958156532070592E+07,
2461057.500000000, A.D. 2026-Jan-17 00:00:00.0000, 1.386238811852437E+08, 3.523646670021423E+08, 3.024054529367884E+07,
2461064.500000000, A.D. 2026-Jan-24 00:00:00.0000, 1.285450545964531E+08, 3.553954945515134E+08, 3.087273534898688E+07,
2461071.500000000, A.D. 2026-Jan-31 00:00:00.0000, 1.183516984540291E+08, 3.581099275132794E+08, 3.147743004511917E+07,
2461078.500000000, A.D. 2026-Feb-07 00:00:00.0000, 1.080522867433251E+08, 3.605037376296011E+08, 3.205393143511999E+07,
2461085.500000000, A.D. 2026-Feb-14 00:00:00.0000, 9.765545379994860E+07, 3.625728279811804E+08, 3.260154925949824E+07,
2461092.500000000, A.D. 2026-Feb-21 00:00:00.0000, 8.716999979891537E+07, 3.643132375999477E+08, 3.311960115793225E+07,
2461099.500000000, A.D. 2026-Feb-28 00:00:00.0000, 7.660489590608092E+07, 3.657211481912112E+08, 3.360741309643286E+07,
2461106.500000000, A.D. 2026-Mar-07 00:00:00.0000, 6.596928701332012E+07, 3.667928910333533E+08, 3.406432004164928E+07,
2461113.500000000, A.D. 2026-Mar-14 00:00:00.0000, 5.527249480449918E+07, 3.675249517447046E+08, 3.448966644058819E+07,
2461120.500000000, A.D. 2026-Mar-21 00:00:00.0000, 4.452402290989244E+07, 3.679139758485343E+08, 3.488280658360529E+07,
2461127.500000000, A.D. 2026-Mar-28 00:00:00.0000, 3.373356211529895E+07, 3.679567761923068E+08, 3.524310512265939E+07,
2461134.500000000, A.D. 2026-Apr-04 00:00:00.0000, 2.291099499192003E+07, 3.676503412810632E+08, 3.556993772507007E+07,
2461141.500000000, A.D. 2026-Apr-11 00:00:00.0000, 1.206640018809724E+07, 3.669918441925236E+08, 3.586269181237468E+07,
2461148.500000000, A.D. 2026-Apr-18 00:00:00.0000, 1.210056507713608E+06, 3.659786520939043E+08, 3.612076737297326E+07,
2461155.500000000, A.D. 2026-Apr-25 00:00:00.0000, -9.647553217059409E+06, 3.646083363985903E+08, 3.634357784878042E+07,
2461162.500000000, A.D. 2026-May-02 00:00:00.0000, -2.049573847294701E+07, 3.628786835537337E+08, 3.653055109359229E+07,
2461169.500000000, A.D. 2026-May-09 00:00:00.0000, -3.132359756173253E+07, 3.607877064143168E+08, 3.668113038997516E+07,
2461176.500000000, A.D. 2026-May-16 00:00:00.0000, -4.212001392820346E+07, 3.583336563690000E+08, 3.679477550645845E+07,
2461183.500000000, A.D. 2026-May-23 00:00:00.0000, -5.287365233230095E+07, 3.555150372733933E+08, 3.687096388020784E+07,
2461190.500000000, A.D. 2026-May-30 00:00:00.0000, -6.357295700708711E+07, 3.523306215449831E+08, 3.690919214803168E+07,
2461197.500000000, A.D. 2026-Jun-06 00:00:00.0000, -7.420615218392868E+07, 3.487794651676699E+08, 3.690897779138802E+07,
2461204.500000000, A.D. 2026-Jun-13 00:00:00.0000, -8.476124139805536E+07, 3.448609218191992E+08, 3.686986057942888E+07,
2461211.500000000, A.D. 2026-Jun-20 00:00:00.0000, -9.522600616218354E+07, 3.405746590700582E+08, 3.679140409994163E+07,
2461218.500000000, A.D. 2026-Jun-27 00:00:00.0000, -1.055880057947016E+08, 3.359206763285419E+08, 3.667319750972897E+07,
2461225.500000000, A.D. 2026-Jul-04 00:00:00.0000, -1.158345785002184E+08, 3.308993237622237E+08, 3.651485744422269E+07,
2461232.500000000, A.D. 2026-Jul-11 00:00:00.0000, -1.259528435555599E+08, 3.255113220649641E+08, 3.631603005544992E+07,
2461239.500000000, A.D. 2026-Jul-18 00:00:00.0000, -1.359297046231360E+08, 3.197577830909857E+08, 3.607639317491195E+07,
2461246.500000000, A.D. 2026-Jul-25 00:00:00.0000, -1.457518542893406E+08, 3.136402313471668E+08, 3.579565860186574E+07,
2461253.500000000, A.D. 2026-Aug-01 00:00:00.0000, -1.554057799095148E+08, 3.071606262748247E+08, 3.547357451056610E+07,
2461260.500000000, A.D. 2026-Aug-08 00:00:00.0000, -1.648777706817271E+08, 3.003213852537828E+08, 3.510992795497538E+07,
2461267.500000000, A.D. 2026-Aug-15 00:00:00.0000, -1.741539256793109E+08, 2.931254077354951E+08, 3.470454746997613E+07,
2461274.500000000, A.D. 2026-Aug-22 00:00:00.0000, -1.832201637571876E+08, 2.855761016709853E+08, 3.425730593819229E+07,
2461281.500000000, A.D. 2026-Aug-29 00:00:00.0000, -1.920622377804684E+08, 2.776774107945852E+08, 3.376812381856762E+07,
2461288.500000000, A.D. 2026-Sep-05 00:00:00.0000, -2.006657511980770E+08, 2.694338398055031E+08, 3.323697230246070E+07,
$$EOE